[{"OBJECT_NAME":"STARLINK-3577","OBJECT_ID":"2022-022AJ","EPOCH":"2026-03-09T23:25:23.462400","MEAN_MOTION":15.08843477,"ECCENTRICITY":0.00014826,"INCLINATION":53.2178,"RA_OF_ASC_NODE":357.8357,"ARG_OF_PERICENTER":87.3728,"MEAN_ANOMALY":272.7434,"EPHEMERIS_TYPE":0,"CLASSIFICATION_TYPE":"U","NORAD_CAT_ID":51884,"ELEMENT_SET_NO":999,"REV_AT_EPOCH":22337,"BSTAR":0.00013437894,"MEAN_MOTION_DOT":1.852e-5,"MEAN_MOTION_DDOT":0},{"OBJECT_NAME":"COSMOS 1408 DEB","OBJECT_ID":"1982-092ADS","EPOCH":"2026-03-09T15:14:01.495392","MEAN_MOTION":15.34178134,"ECCENTRICITY":0.0122957,"INCLINATION":82.1939,"RA_OF_ASC_NODE":124.7493,"ARG_OF_PERICENTER":254.6382,"MEAN_ANOMALY":104.1246,"EPHEMERIS_TYPE":0,"CLASSIFICATION_TYPE":"U","NORAD_CAT_ID":50404,"ELEMENT_SET_NO":999,"REV_AT_EPOCH":22516,"BSTAR":0.0029669,"MEAN_MOTION_DOT":0.00127192,"MEAN_MOTION_DDOT":0}]
